{
  "type": "FeatureCollection",
  "features": [
    {
      "type": "Feature",
      "properties": {
        "norad_id": 30503,
        "name": "FENGYUN 1C DEB",
        "group": "fengyun-1c-debris",
        "lat": -34.72894665983346,
        "lon": -173.45674714524952,
        "alt_km": 839.3230788402134,
        "timestamp": "2025-12-02T21:34:01.547926+00:00",
        "meta_object_name": "FENGYUN 1C DEB",
        "meta_object_id": "1999-025AHR",
        "meta_epoch": "2025-12-02T05:05:04.194240",
        "meta_mean_motion": 14.16106124,
        "meta_eccentricity": 0.0008473,
        "meta_inclination": 99.2052,
        "meta_ra_of_asc_node": 179.3798,
        "meta_arg_of_pericenter": 298.6174,
        "meta_mean_anomaly": 126.9575,
        "meta_ephemeris_type": 0,
        "meta_classification_type": "U",
        "meta_norad_cat_id": 30503,
        "meta_element_set_no": 999,
        "meta_rev_at_epoch": 97197,
        "meta_bstar": 0.00036249,
        "meta_mean_motion_dot": 6.69e-06,
        "meta_mean_motion_ddot": 0,
        "tle_line1": "1 30503U 99025AHR 25336.21185410  .00000669  00000+0  36249-3 0  9994",
        "tle_line2": "2 30503  99.2052 179.3798 0008473 298.6174 126.9575 14.16106124971977"
      },
      "geometry": {
        "type": "Point",
        "coordinates": [
          -173.45674714524952,
          -34.72894665983346
        ]
      }
    },
    {
      "type": "Feature",
      "properties": {
        "norad_id": 30504,
        "name": "FENGYUN 1C DEB",
        "group": "fengyun-1c-debris",
        "lat": 23.857690031706223,
        "lon": 18.84457883891288,
        "alt_km": 884.1596677132457,
        "timestamp": "2025-12-02T21:34:01.547936+00:00",
        "meta_object_name": "FENGYUN 1C DEB",
        "meta_object_id": "1999-025AHS",
        "meta_epoch": "2025-12-01T01:38:19.716000",
        "meta_mean_motion": 14.2044549,
        "meta_eccentricity": 0.01115456,
        "meta_inclination": 99.0269,
        "meta_ra_of_asc_node": 21.008,
        "meta_arg_of_pericenter": 249.7531,
        "meta_mean_anomaly": 139.2488,
        "meta_ephemeris_type": 0,
        "meta_classification_type": "U",
        "meta_norad_cat_id": 30504,
        "meta_element_set_no": 999,
        "meta_rev_at_epoch": 97228,
        "meta_bstar": 0.00044565383,
        "meta_mean_motion_dot": 9.7e-06,
        "meta_mean_motion_ddot": 0,
        "tle_line1": "1 30504U 99025AHS 25335.06828375  .00000970  00000+0  44565-3 0  9996",
        "tle_line2": "2 30504  99.0269  21.0080 0111545 249.7531 139.2488 14.20445490972284"
      },
      "geometry": {
        "type": "Point",
        "coordinates": [
          18.84457883891288,
          23.857690031706223
        ]
      }
    },
    {
      "type": "Feature",
      "properties": {
        "norad_id": 30505,
        "name": "FENGYUN 1C DEB",
        "group": "fengyun-1c-debris",
        "lat": -49.17427711378416,
        "lon": -134.04199602343252,
        "alt_km": 791.1625164067982,
        "timestamp": "2025-12-02T21:34:01.547946+00:00",
        "meta_object_name": "FENGYUN 1C DEB",
        "meta_object_id": "1999-025AHT",
        "meta_epoch": "2025-12-01T18:03:07.462080",
        "meta_mean_motion": 14.21902111,
        "meta_eccentricity": 0.00627228,
        "meta_inclination": 98.9269,
        "meta_ra_of_asc_node": 55.2802,
        "meta_arg_of_pericenter": 273.487,
        "meta_mean_anomaly": 211.6115,
        "meta_ephemeris_type": 0,
        "meta_classification_type": "U",
        "meta_norad_cat_id": 30505,
        "meta_element_set_no": 999,
        "meta_rev_at_epoch": 96767,
        "meta_bstar": 0.0017834286,
        "meta_mean_motion_dot": 3.968e-05,
        "meta_mean_motion_ddot": 0,
        "tle_line1": "1 30505U 99025AHT 25335.75216970  .00003968  00000+0  17834-2 0  9993",
        "tle_line2": "2 30505  98.9269  55.2802 0062722 273.4870 211.6115 14.21902111967674"
      },
      "geometry": {
        "type": "Point",
        "coordinates": [
          -134.04199602343252,
          -49.17427711378416
        ]
      }
    },
    {
      "type": "Feature",
      "properties": {
        "norad_id": 30506,
        "name": "FENGYUN 1C DEB",
        "group": "fengyun-1c-debris",
        "lat": 10.764053072316344,
        "lon": -19.422635874737164,
        "alt_km": 814.3539806723729,
        "timestamp": "2025-12-02T21:34:01.547956+00:00",
        "meta_object_name": "FENGYUN 1C DEB",
        "meta_object_id": "1999-025AHU",
        "meta_epoch": "2025-12-02T12:00:48.001248",
        "meta_mean_motion": 14.08631378,
        "meta_eccentricity": 0.0070781,
        "meta_inclination": 98.7571,
        "meta_ra_of_asc_node": 341.87,
        "meta_arg_of_pericenter": 16.8777,
        "meta_mean_anomaly": 136.6589,
        "meta_ephemeris_type": 0,
        "meta_classification_type": "U",
        "meta_norad_cat_id": 30506,
        "meta_element_set_no": 999,
        "meta_rev_at_epoch": 96677,
        "meta_bstar": 0.00040253,
        "meta_mean_motion_dot": 6.66e-06,
        "meta_mean_motion_ddot": 0,
        "tle_line1": "1 30506U 99025AHU 25336.50055557  .00000666  00000+0  40253-3 0  9994",
        "tle_line2": "2 30506  98.7571 341.8700 0070781  16.8777 136.6589 14.08631378966779"
      },
      "geometry": {
        "type": "Point",
        "coordinates": [
          -19.422635874737164,
          10.764053072316344
        ]
      }
    },
    {
      "type": "Feature",
      "properties": {
        "norad_id": 30507,
        "name": "FENGYUN 1C DEB",
        "group": "fengyun-1c-debris",
        "lat": -30.264129311560826,
        "lon": 46.62548307915903,
        "alt_km": 907.7615859760081,
        "timestamp": "2025-12-02T21:34:01.547966+00:00",
        "meta_object_name": "FENGYUN 1C DEB",
        "meta_object_id": "1999-025AHV",
        "meta_epoch": "2025-11-30T22:58:02.867232",
        "meta_mean_motion": 14.13085215,
        "meta_eccentricity": 0.01281493,
        "meta_inclination": 99.0144,
        "meta_ra_of_asc_node": 39.3554,
        "meta_arg_of_pericenter": 209.3423,
        "meta_mean_anomaly": 326.9345,
        "meta_ephemeris_type": 0,
        "meta_classification_type": "U",
        "meta_norad_cat_id": 30507,
        "meta_element_set_no": 999,
        "meta_rev_at_epoch": 96331,
        "meta_bstar": 0.0013402973,
        "meta_mean_motion_dot": 2.662e-05,
        "meta_mean_motion_ddot": 0,
        "tle_line1": "1 30507U 99025AHV 25334.95697763  .00002662  00000+0  13403-2 0  9997",
        "tle_line2": "2 30507  99.0144  39.3554 0128149 209.3423 326.9345 14.13085215963315"
      },
      "geometry": {
        "type": "Point",
        "coordinates": [
          46.62548307915903,
          -30.264129311560826
        ]
      }
    },
    {
      "type": "Feature",
      "properties": {
        "norad_id": 30509,
        "name": "FENGYUN 1C DEB",
        "group": "fengyun-1c-debris",
        "lat": -23.196211751175433,
        "lon": -146.98655635927875,
        "alt_km": 902.9286768717548,
        "timestamp": "2025-12-02T21:34:01.547976+00:00",
        "meta_object_name": "FENGYUN 1C DEB",
        "meta_object_id": "1999-025AHX",
        "meta_epoch": "2025-12-02T03:37:21.523584",
        "meta_mean_motion": 14.0754091,
        "meta_eccentricity": 0.0100784,
        "meta_inclination": 98.4657,
        "meta_ra_of_asc_node": 208.6534,
        "meta_arg_of_pericenter": 93.3445,
        "meta_mean_anomaly": 57.8388,
        "meta_ephemeris_type": 0,
        "meta_classification_type": "U",
        "meta_norad_cat_id": 30509,
        "meta_element_set_no": 999,
        "meta_rev_at_epoch": 95573,
        "meta_bstar": 0.0020400223,
        "meta_mean_motion_dot": 3.565e-05,
        "meta_mean_motion_ddot": 0,
        "tle_line1": "1 30509U 99025AHX 25336.15094356  .00003565  00000+0  20400-2 0  9990",
        "tle_line2": "2 30509  98.4657 208.6534 0100784  93.3445  57.8388 14.07540910955733"
      },
      "geometry": {
        "type": "Point",
        "coordinates": [
          -146.98655635927875,
          -23.196211751175433
        ]
      }
    },
    {
      "type": "Feature",
      "properties": {
        "norad_id": 30510,
        "name": "FENGYUN 1C DEB",
        "group": "fengyun-1c-debris",
        "lat": -22.68370316712047,
        "lon": 164.70980272903924,
        "alt_km": 799.140194288052,
        "timestamp": "2025-12-02T21:34:01.547986+00:00",
        "meta_object_name": "FENGYUN 1C DEB",
        "meta_object_id": "1999-025AHY",
        "meta_epoch": "2025-12-02T00:20:34.490976",
        "meta_mean_motion": 14.1276576,
        "meta_eccentricity": 0.00785778,
        "meta_inclination": 99.2456,
        "meta_ra_of_asc_node": 347.7011,
        "meta_arg_of_pericenter": 196.1697,
        "meta_mean_anomaly": 191.3235,
        "meta_ephemeris_type": 0,
        "meta_classification_type": "U",
        "meta_norad_cat_id": 30510,
        "meta_element_set_no": 999,
        "meta_rev_at_epoch": 96423,
        "meta_bstar": 0.0014406909,
        "meta_mean_motion_dot": 2.708e-05,
        "meta_mean_motion_ddot": 0,
        "tle_line1": "1 30510U 99025AHY 25336.01428809  .00002708  00000+0  14407-2 0  9999",
        "tle_line2": "2 30510  99.2456 347.7011 0078577 196.1697 191.3235 14.12765760964239"
      },
      "geometry": {
        "type": "Point",
        "coordinates": [
          164.70980272903924,
          -22.68370316712047
        ]
      }
    }
  ]
}